NORAD_CAT_ID,OBJECT_NAME,OBJECT_TYPE,EPOCH,MEAN_MOTION,ECCENTRICITY,INCLINATION,RA_OF_ASC_NODE,ARG_OF_PERICENTER,MEAN_ANOMALY,BSTAR,MEAN_MOTION_DOT,MEAN_MOTION_DDOT,TLE_LINE0,TLE_LINE1,TLE_LINE2,SEMIMAJOR_AXIS,PERIOD,APOGEE,PERIGEE,DECAYED
51979.0,STARLINK-3656,PAYLOAD,2023-07-31 02:10:15,15.08835587,0.000109,53.2183,355.5071,92.7028,267.4089,-1.0404e-05,-4.53e-06,0.0,0 STARLINK-3656,1 51979U 22025Z   23212.09045852 -.00000453  00000-0 -10404-4 0  9992,2 51979  53.2183 355.5071 0001090  92.7028 267.4089 15.08835587 78369,6917.894,95.438,540.513,539.005,0.0
51979.0,STARLINK-3656,PAYLOAD,2023-07-31 16:28:43,15.08851307,9.16e-05,53.2189,352.8301,102.195,257.9145,0.00016357,2.317e-05,0.0,0 STARLINK-3656,1 51979U 22025Z   23212.68661026  .00002317  00000-0  16357-3 0  9995,2 51979  53.2189 352.8301 0000916 102.1950 257.9145 15.08851307 78452,6917.846,95.437,540.345,539.077,0.0
51979.0,STARLINK-3656,PAYLOAD,2023-08-01 19:30:16,15.08844174,0.0001032,53.218,347.7735,92.2958,267.8152,0.00015349,2.156e-05,0.0,0 STARLINK-3656,1 51979U 22025Z   23213.81269539  .00002156  00000-0  15349-3 0  9995,2 51979  53.2180 347.7735 0001032  92.2958 267.8152 15.08844174 78625,6917.868,95.437,540.447,539.019,0.0
51979.0,STARLINK-3656,PAYLOAD,2023-08-02 01:51:49,15.08837894,9.23e-05,53.218,346.5837,92.1394,267.9704,2.7279e-05,1.46e-06,0.0,0 STARLINK-3656,1 51979U 22025Z   23214.07765752  .00000146  00000-0  27279-4 0  9995,2 51979  53.2180 346.5837 0000923  92.1394 267.9704 15.08837894 78665,6917.887,95.438,540.39,539.113,0.0
51979.0,STARLINK-3656,PAYLOAD,2023-08-02 17:45:40,15.08850956,9.49e-05,53.2178,343.6103,92.6969,267.4132,0.00028706,4.285e-05,0.0,0 STARLINK-3656,1 51979U 22025Z   23214.74005328  .00004285  00000-0  28706-3 0  9998,2 51979  53.2178 343.6103 0000949  92.6969 267.4132 15.08850956 78762,6917.847,95.437,540.368,539.055,0.0
51979.0,STARLINK-3656,PAYLOAD,2023-08-03 08:04:08,15.08847154,9.94e-05,53.217,340.9343,101.0669,259.0435,1.0155e-05,-1.26e-06,0.0,0 STARLINK-3656,1 51979U 22025Z   23215.33621308 -.00000126  00000-0  10155-4 0  9997,2 51979  53.2170 340.9343 0000994 101.0669 259.0435 15.08847154 78851,6917.859,95.437,540.411,539.036,0.0
51979.0,STARLINK-3656,PAYLOAD,2023-08-04 07:54:56,15.08828083,8.06e-05,53.2175,336.4743,86.216,273.8925,-0.00014164,-2.54e-05,0.0,0 STARLINK-3656,1 51979U 22025Z   23216.32982160 -.00002540  00000-0 -14164-3 0  9999,2 51979  53.2175 336.4743 0000806  86.2160 273.8925 15.08828083 79008,6917.917,95.438,540.339,539.224,0.0
51979.0,STARLINK-3656,PAYLOAD,2023-08-04 14:16:28,15.08836762,0.000111,53.2175,335.2859,88.8955,271.2165,5.4253e-05,5.76e-06,0.0,0 STARLINK-3656,1 51979U 22025Z   23216.59477896  .00000576  00000-0  54253-4 0  9992,2 51979  53.2175 335.2859 0001110  88.8955 271.2165 15.08836762 79047,6917.89,95.438,540.523,538.987,0.0
51979.0,STARLINK-3656,PAYLOAD,2023-08-05 14:07:15,15.08859574,0.0001313,53.2165,330.8272,57.0512,303.0607,0.00091753,0.00014352,0.0,0 STARLINK-3656,1 51979U 22025Z   23217.58837842  .00014352  00000-0  91753-3 0  9995,2 51979  53.2165 330.8272 0001313  57.0512 303.0607 15.08859574 79195,6917.821,95.436,540.594,538.777,0.0
51979.0,STARLINK-3656,PAYLOAD,2023-08-05 18:53:24,15.08876687,0.0001145,53.2163,329.9335,80.6637,279.4484,0.0014122,0.00022281,0.0,0 STARLINK-3656,1 51979U 22025Z   23217.78709255  .00022281  00000-0  14122-2 0  9997,2 51979  53.2163 329.9335 0001145  80.6637 279.4484 15.08876687 79222,6917.768,95.435,540.425,538.841,0.0
51979.0,STARLINK-3656,PAYLOAD,2023-08-06 10:47:17,15.0882161,9.95e-05,53.2172,326.9618,90.4408,269.6698,-0.00033151,-5.557e-05,0.0,0 STARLINK-3656,1 51979U 22025Z   23218.44950667 -.00005557  00000-0 -33151-3 0  9999,2 51979  53.2172 326.9618 0000995  90.4408 269.6698 15.08821610 79325,6917.937,95.439,540.49,539.113,0.0
51979.0,STARLINK-3656,PAYLOAD,2023-08-07 07:27:20,15.08798202,0.0001062,53.2166,323.0942,95.6194,264.492,0.00084836,0.00013224,0.0,0 STARLINK-3656,1 51979U 22025Z   23219.31065043  .00013224  00000-0  84836-3 0  9995,2 51979  53.2166 323.0942 0001062  95.6194 264.4920 15.08798202 79456,6918.008,95.44,540.608,539.138,0.0
51979.0,STARLINK-3656,PAYLOAD,2023-08-07 12:13:29,15.088313,0.0001207,53.2174,322.202,102.2272,257.8856,0.0022029,0.00034937,0.0,0 STARLINK-3656,1 51979U 22025Z   23219.50937311  .00034937  00000-0  22029-2 0  9991,2 51979  53.2174 322.2020 0001207 102.2272 257.8856 15.08831300 79480,6917.907,95.438,540.607,538.937,0.0
51979.0,STARLINK-3656,PAYLOAD,2023-08-08 16:50:23,15.08896931,0.0001286,53.2174,316.8496,102.3913,257.7223,0.001307,0.00020607,0.0,0 STARLINK-3656,1 51979U 22025Z   23220.70166433  .00020607  00000-0  13070-2 0  9999,2 51979  53.2174 316.8496 0001286 102.3913 257.7223 15.08896931 79664,6917.706,95.434,540.461,538.682,0.0
51979.0,STARLINK-3656,PAYLOAD,2023-08-09 07:08:52,15.08860615,0.0002715,53.2177,314.1736,104.0558,256.0736,3.8716e-05,3.28e-06,0.0,0 STARLINK-3656,1 51979U 22025Z   23221.29782455  .00000328  00000-0  38716-4 0  9996,2 51979  53.2177 314.1736 0002715 104.0558 256.0736 15.08860615 79758,6917.817,95.436,541.561,537.804,0.0
51979.0,STARLINK-3656,PAYLOAD,2023-08-09 13:30:24,15.08844589,0.0001133,53.2176,312.9847,72.7326,287.379,-0.000116,-2.134e-05,0.0,0 STARLINK-3656,1 51979U 22025Z   23221.56278654 -.00002134  00000-0 -11600-3 0  9998,2 51979  53.2176 312.9847 0001133  72.7326 287.3790 15.08844589 79796,6917.866,95.437,540.515,538.948,0.0
51979.0,STARLINK-3656,PAYLOAD,2023-08-10 14:56:34,15.08850297,0.0001252,53.2171,308.2267,77.7955,282.3177,0.00027208,4.046e-05,0.0,0 STARLINK-3656,1 51979U 22025Z   23222.62262573  .00004046  00000-0  27208-3 0  9992,2 51979  53.2171 308.2267 0001252  77.7955 282.3177 15.08850297 79955,6917.849,95.437,540.58,538.848,0.0
51979.0,STARLINK-3656,PAYLOAD,2023-08-10 22:53:30,15.08838597,0.0001296,53.217,306.7392,78.7146,281.3992,0.000176,2.514e-05,0.0,0 STARLINK-3656,1 51979U 22025Z   23222.95382948  .00002514  00000-0  17600-3 0  9990,2 51979  53.2170 306.7392 0001296  78.7146 281.3992 15.08838597 80008,6917.885,95.438,540.646,538.853,0.0
51979.0,STARLINK-3656,PAYLOAD,2023-08-12 09:51:59,15.08841171,0.0001249,53.2168,300.1972,77.7556,282.3576,1.3031e-05,-8e-07,0.0,0 STARLINK-3656,1 51979U 22025Z   23224.41111019 -.00000080  00000-0  13031-4 0  9994,2 51979  53.2168 300.1972 0001249  77.7556 282.3576 15.08841171 80224,6917.877,95.437,540.606,538.878,0.0
51979.0,STARLINK-3656,PAYLOAD,2023-08-12 16:13:31,15.08851079,0.0001249,53.2167,299.0075,77.7627,282.3505,0.00015738,2.218e-05,0.0,0 STARLINK-3656,1 51979U 22025Z   23224.67606476  .00002218  00000-0  15738-3 0  9997,2 51979  53.2167 299.0075 0001249  77.7627 282.3505 15.08851079 80266,6917.847,95.437,540.576,538.847,0.0
51979.0,STARLINK-3656,PAYLOAD,2023-08-12 22:35:05,15.08837875,0.0001242,53.2166,297.8195,79.4037,280.7094,3.4169e-05,2.56e-06,0.0,0 STARLINK-3656,1 51979U 22025Z   23224.94103295  .00000256  00000-0  34169-4 0  9998,2 51979  53.2166 297.8195 0001242  79.4037 280.7094 15.08837875 80309,6917.887,95.438,540.611,538.893,0.0
51979.0,STARLINK-3656,PAYLOAD,2023-08-14 11:08:57,15.08842939,0.0001298,53.2171,290.9796,84.1251,275.9889,4.149e-05,3.73e-06,0.0,0 STARLINK-3656,1 51979U 22025Z   23226.46455185  .00000373  00000-0  41490-4 0  9990,2 51979  53.2171 290.9796 0001298  84.1251 275.9889 15.08842939 80538,6917.871,95.437,540.634,538.838,0.0
51979.0,STARLINK-3656,PAYLOAD,2023-08-15 09:24:20,15.08864031,0.0001529,53.2174,286.8134,96.9434,263.1732,-0.00028846,-4.879e-05,0.0,0 STARLINK-3656,1 51979U 22025Z   23227.39190188 -.00004879  00000-0 -28846-3 0  9998,2 51979  53.2174 286.8134 0001529  96.9434 263.1732 15.08864031 80670,6917.807,95.436,540.73,538.614,0.0
51979.0,STARLINK-3656,PAYLOAD,2023-08-15 20:32:03,15.08837044,8.6e-05,53.2179,284.7343,105.3276,254.7811,9.905e-05,1.289e-05,0.0,0 STARLINK-3656,1 51979U 22025Z   23227.85559227  .00001289  00000-0  99050-4 0  9998,2 51979  53.2179 284.7343 0000860 105.3276 254.7811 15.08837044 80746,6917.889,95.438,540.349,539.159,0.0
51979.0,STARLINK-3656,PAYLOAD,2023-08-17 02:44:24,15.08806638,0.0001269,53.2182,279.087,96.6117,263.502,0.00053336,8.203e-05,0.0,0 STARLINK-3656,1 51979U 22025Z   23229.11417117  .00008203  00000-0  53336-3 0  9999,2 51979  53.2182 279.0870 0001269  96.6117 263.5020 15.08806638 80938,6917.982,95.44,540.725,538.969,0.0
51979.0,STARLINK-3656,PAYLOAD,2023-08-17 10:41:18,15.08842956,0.0001431,53.2178,277.5977,88.2263,271.8894,3.6475e-05,2.93e-06,0.0,0 STARLINK-3656,1 51979U 22025Z   23229.44535634  .00000293  00000-0  36475-4 0  9997,2 51979  53.2178 277.5977 0001431  88.2263 271.8894 15.08842956 80983,6917.871,95.437,540.726,538.746,0.0
51979.0,STARLINK-3656,PAYLOAD,2023-08-18 20:04:24,15.08841337,0.0001428,53.2153,271.3532,87.3119,272.8037,0.00010678,1.412e-05,0.0,0 STARLINK-3656,1 51979U 22025Z   23230.83639674  .00001412  00000-0  10678-3 0  9991,2 51979  53.2153 271.3532 0001428  87.3119 272.8037 15.08841337 81197,6917.876,95.437,540.729,538.753,0.0
51979.0,STARLINK-3656,PAYLOAD,2023-08-20 02:16:44,15.0883512,9.88e-05,53.2148,265.702,117.4261,242.6832,4.2422e-05,3.87e-06,0.0,0 STARLINK-3656,1 51979U 22025Z   23232.09495909  .00000387  00000-0  42422-4 0  9995,2 51979  53.2148 265.7020 0000988 117.4261 242.6832 15.08835120 81385,6917.895,95.438,540.444,539.077,0.0
51979.0,STARLINK-3656,PAYLOAD,2023-08-21 08:29:03,15.08848615,0.0001447,53.216,260.0522,85.5757,274.54,0.00013049,1.79e-05,0.0,0 STARLINK-3656,1 51979U 22025Z   23233.35351350  .00001790  00000-0  13049-3 0  9997,2 51979  53.2160 260.0522 0001447  85.5757 274.5400 15.08848615 81579,6917.854,95.437,540.72,538.718,0.0
51979.0,STARLINK-3656,PAYLOAD,2023-08-22 08:19:51,15.08837935,0.0001518,53.2168,255.5911,85.6273,274.4892,7.625e-05,9.26e-06,0.0,0 STARLINK-3656,1 51979U 22025Z   23234.34712123  .00000926  00000-0  76250-4 0  9990,2 51979  53.2168 255.5911 0001518  85.6273 274.4892 15.08837935 81725,6917.887,95.438,540.802,538.702,0.0
